<?xml version="1.0" encoding="utf-8" ?>
<kml xmlns="http://www.opengis.net/kml/2.2">
<Document id="root_doc">
<Schema name="village" id="village">
	<SimpleField name="descript" type="string"></SimpleField>
</Schema>

<!-- Village Boundaries -->
<Folder><name>village</name>
  <Placemark id="village.1">
	<name>Kadambur</name>
	<Style><LineStyle><color>ff0000ff</color></LineStyle><PolyStyle><fill>0</fill></PolyStyle></Style>
	<ExtendedData><SchemaData schemaUrl="#village">
		<SimpleData name="descript">கடம்பூர்</SimpleData>
	</SchemaData></ExtendedData>
      <MultiGeometry><Polygon><outerBoundaryIs><LinearRing><coordinates>78.5967237414247,11.5059105185192 78.596724840259,11.5059107377868 78.5967290702069,11.5059149677347 78.5974820009439,11.5062279838838 78.5991318464194,11.5063481235275 78.6003917654299,11.5061622123386 78.6015787024192,11.5060767721878 78.6025911887155,11.5058247219428 78.6034066309822,11.5055128954844 78.6045080879017,11.5049040995441 78.6052094661653,11.5044351547748 78.6070998071106,11.5033676599498 78.6077705797204,11.5028269350909 78.6085404719641,11.5017438999138 78.6087216610704,11.5008422485002 78.6082714148973,11.4995784355858 78.6080128935171,11.4991188049793 78.6071796173308,11.4986514269442 78.6064691325743,11.4986583025624 78.6059866673486,11.4989208484701 78.6056843807202,11.4992357304342 78.6051592606308,11.4996370244107 78.6043587455824,11.4998536512428 78.6037741310152,11.4999144882498 78.6033211453595,11.4997805683992 78.602724499759,11.4999020451356 78.6021155636964,11.5001827779452 78.6017875063619,11.5005114263545 78.6014077509537,11.5010919883525 78.6011339487011,11.5017634978098 78.6005712710497,11.5023085527675 78.599848642178,11.5028486956627 78.5991469157796,11.5034094212755 78.597423394648,11.5043775661304 78.5970747705483,11.5045181734515 78.5967260732769,11.5048572794455 78.5965535432352,11.5052228556821 78.5967237414247,11.5059105185192</coordinates></LinearRing></outerBoundaryIs></Polygon></MultiGeometry>
  </Placemark>
  <Placemark id="village.2">
	<name>Naduvalur</name>
	<Style><LineStyle><color>ff0000ff</color></LineStyle><PolyStyle><fill>0</fill></PolyStyle></Style>
	<ExtendedData><SchemaData schemaUrl="#village">
		<SimpleData name="descript">நடுவலூர்</SimpleData>
	</SchemaData></ExtendedData>
      <MultiGeometry><Polygon><outerBoundaryIs><LinearRing><coordinates>78.6603656011476,11.5192548791067 78.6603653382021,11.5192558854098 78.6601121081177,11.5209529412662 78.6608717317025,11.5219224176002 78.6617951271176,11.5218159542794 78.662090198263,11.5235246624479 78.6649945723098,11.5252393261389 78.6655063882223,11.5249398739421 78.6663197043803,11.523961820631 78.6678809505356,11.5230866127913 78.6667488981006,11.5206935016542 78.6640042377972,11.5173768928685 78.6579020079545,11.5163922428085 78.6577376647065,11.5168481910759 78.6576884291845,11.5169111031318 78.6576282524353,11.5168673382234 78.6576501348896,11.5167209993107 78.6575420902718,11.5165295278362 78.6566411547455,11.5173433741295 78.6589650882838,11.5186622332001 78.6594509116817,11.5186809563046 78.6603656011476,11.5192548791067</coordinates></LinearRing></outerBoundaryIs></Polygon></MultiGeometry>
  </Placemark>
  <Placemark id="village.3">
	<name>Othiyathur</name>
	<Style><LineStyle><color>ff0000ff</color></LineStyle><PolyStyle><fill>0</fill></PolyStyle></Style>
	<ExtendedData><SchemaData schemaUrl="#village">
		<SimpleData name="descript">ஒதியத்தூர்</SimpleData>
	</SchemaData></ExtendedData>
      <MultiGeometry><Polygon><outerBoundaryIs><LinearRing><coordinates>78.6625935645813,11.5486822357509 78.6625925200647,11.5486825982016 78.663375405959,11.5484940264162 78.6649939584969,11.5475350354134 78.6652624647664,11.5468797923555 78.6650182442792,11.546137969327 78.663808151304,11.5448870899676 78.6627251356406,11.5443450274618 78.6613308873146,11.5443214324901 78.6600930821482,11.5447979316737 78.6595003127983,11.5456195550131 78.6595409996085,11.5465015857002 78.6603255603806,11.5473135833183 78.661486458962,11.5480951854574 78.6625935645813,11.5486822357509</coordinates></LinearRing></outerBoundaryIs></Polygon></MultiGeometry>
  </Placemark>
  <Placemark id="village.4">
	<name>Manjini</name>
	<Style><LineStyle><color>ff0000ff</color></LineStyle><PolyStyle><fill>0</fill></PolyStyle></Style>
	<ExtendedData><SchemaData schemaUrl="#village">
		<SimpleData name="descript">மஞ்சுனி</SimpleData>
	</SchemaData></ExtendedData>
      <MultiGeometry><Polygon><outerBoundaryIs><LinearRing><coordinates>78.6274691116337,11.5588719951864 78.6274788741085,11.5588860228584 78.6285784718724,11.5604506277218 78.629809277093,11.5613156030359 78.6313386227649,11.5619666309155 78.6329994217146,11.5620270951761 78.6349217774896,11.5615401881206 78.6363473756008,11.5607944756357 78.6382818452632,11.5591390053073 78.6391722454856,11.5570020447737 78.6388714637953,11.5551065900007 78.6379617179564,11.553202862597 78.636511404278,11.5516998102393 78.634478077402,11.550628440911 78.6321257847338,11.5506800499589 78.629943884805,11.5517158964686 78.6284847629116,11.5526572262916 78.6273130192031,11.5541147947058 78.6268512580385,11.5557975205579 78.6270407688995,11.5575592995969 78.6274691116337,11.5588719951864</coordinates></LinearRing></outerBoundaryIs></Polygon></MultiGeometry>
  </Placemark>
  <Placemark id="village.5">
	<name>Pungavadi</name>
	<Style><LineStyle><color>ff0000ff</color></LineStyle><PolyStyle><fill>0</fill></PolyStyle></Style>
	<ExtendedData><SchemaData schemaUrl="#village">
		<SimpleData name="descript">புங்கவாடி</SimpleData>
	</SchemaData></ExtendedData>
      <MultiGeometry><Polygon><outerBoundaryIs><LinearRing><coordinates>78.6134315677332,11.530982953694 78.6134315563622,11.5309829330988 78.6137827835361,11.5315271211684 78.6144208797668,11.5318599126962 78.6157547126875,11.5320178133855 78.616531796742,11.5319211422357 78.6174645824622,11.5316849823708 78.6182849204803,11.5311846213871 78.6188897311327,11.5306809335957 78.6193939931427,11.5299365139953 78.6196402741642,11.5292473410528 78.6197906010642,11.5284921425822 78.6198153215898,11.526875032575 78.6196159853383,11.5265300925025 78.61931091182,11.5263925740745 78.6188547819223,11.5263201048384 78.6181999224036,11.5263904061306 78.6167625590877,11.5266182808026 78.6160091339886,11.5267975831641 78.614569908404,11.5272961427828 78.6139837904876,11.5276467668935 78.6136052153249,11.52820773471 78.6133665344421,11.5289025278815 78.613262212756,11.5296463219531 78.6132552363072,11.5302881552391 78.6134315677332,11.530982953694</coordinates></LinearRing></outerBoundaryIs></Polygon></MultiGeometry>
  </Placemark>
</Folder>

<!-- Village Markers -->
<Folder><name>village_marker</name>
  <Placemark id="village_marker.1">
	<name>Kadambur</name>
      <Point><coordinates>78.6030587250022,11.502932739375</coordinates></Point>
  </Placemark>
  <Placemark id="village_marker.2">
	<name>Naduvalur</name>
      <Point><coordinates>78.6634635980926,11.5204425883932</coordinates></Point>
  </Placemark>
  <Placemark id="village_marker.3">
	<name>Othiyathur</name>
      <Point><coordinates>78.6623850244919,11.5464542713672</coordinates></Point>
  </Placemark>
  <Placemark id="village_marker.4">
	<name>Manjini</name>
      <Point><coordinates>78.6328909103083,11.5562889685432</coordinates></Point>
  </Placemark>
  <Placemark id="village_marker.5">
	<name>Pungavadi</name>
      <Point><coordinates>78.6165547404336,11.5293001109581</coordinates></Point>
  </Placemark>
</Folder>

</Document>
</kml>
